     2.100          NAVIGATION                              RINEX VERSION / TYPE
fic2rin                                 10/15/2015 00:14:43 PGM / RUN BY / DATE
                                                            END OF HEADER
30 15 10 14  4  0  0.0  .407169573009D-04  .613908923697D-11  .000000000000D+00
     .230000000000D+02 -.370000000000D+02  .521593155020D-08  .152140188971D+01
    -.178255140781D-05  .170590099879D-02  .196881592274D-05  .515368185043D+04
     .273600000000D+06  .502914190292D-07 -.122579491080D+01  .745058059692D-08
     .954298109204D+00  .337781250000D+03 -.313377711469D+01 -.869071914619D-08
    -.195008122871D-09  .100000000000D+01  .186600000000D+04  .000000000000D+00
     .240000000000D+01  .000000000000D+00  .325962901115D-08  .230000000000D+02
     .266406000000D+06  .400000000000D+01
31 15 10 14  4  0  0.0  .299288891256D-03 -.147792889038D-11  .000000000000D+00
     .650000000000D+02 -.285312500000D+02  .467162316328D-08  .159897861412D+01
    -.134855508804D-05  .817148876376D-02  .195764005184D-05  .515360984612D+04
     .273600000000D+06  .119209289551D-06 -.126481581334D+01  .372529029846D-08
     .973370633022D+00  .344218750000D+03 -.515546205449D+00 -.834249035535D-08
    -.279297348141D-09  .100000000000D+01  .186600000000D+04  .000000000000D+00
     .240000000000D+01  .000000000000D+00 -.135041773319D-07  .650000000000D+02
     .266406000000D+06  .400000000000D+01
32 15 10 14  4  0  0.0 -.149868428707D-04  .113686837722D-10  .000000000000D+00
     .920000000000D+02 -.434375000000D+01  .452447417680D-08  .202742871898D+01
    -.247731804848D-06  .113645027159D-01  .117532908916D-04  .515367980576D+04
     .273600000000D+06 -.106170773506D-06  .297107413522D+01  .216066837311D-06
     .947335856775D+00  .144531250000D+03  .146012797265D+00 -.797604652007D-08
    -.374658463172D-09  .100000000000D+01  .186600000000D+04  .000000000000D+00
     .240000000000D+01  .000000000000D+00 -.325962901115D-08  .920000000000D+02
     .266406000000D+06  .400000000000D+01
26 15 10 14  3 59 28.0 -.835037790239D-04 -.131876731757D-10  .000000000000D+00
     .800000000000D+01 -.859375000000D+02  .429410743824D-08 -.106995350134D+00
    -.462867319584D-05  .201602932066D-03  .103041529655D-04  .515365416908D+04
     .273568000000D+06  .298023223877D-07 -.255034120703D+00  .204890966415D-07
     .960887070289D+00  .181625000000D+03  .232055541245D-01 -.790675791963D-08
    -.344657213499D-09  .100000000000D+01  .186600000000D+04  .000000000000D+00
     .240000000000D+01  .000000000000D+00  .745058059692D-08  .800000000000D+01
     .270126000000D+06  .400000000000D+01
 9 15 10 14  3 59 44.0 -.262819230556D-05  .363797880709D-11  .000000000000D+00
     .000000000000D+00  .109593750000D+03  .467983779117D-08 -.244105421182D+01
     .574998557568D-05  .349620822817D-03  .813975930214D-05  .515372027016D+04
     .273584000000D+06  .279396772385D-07 -.235087983462D+01  .000000000000D+00
     .956612391477D+00  .223187500000D+03  .245284115930D+01 -.818212653270D-08
     .460733477113D-09  .100000000000D+01  .186600000000D+04  .000000000000D+00
     .240000000000D+01  .000000000000D+00  .931322574615D-09  .000000000000D+00
     .271296000000D+06  .400000000000D+01
 4 15 10 14  3 59 44.0 -.320645049214D-04 -.488853402203D-11  .000000000000D+00
     .400000000000D+01 -.194375000000D+02  .528807741251D-08  .204543658515D+01
    -.121630728245D-05  .119741023518D-01  .380724668503D-05  .515363951683D+04
     .273584000000D+06 -.260770320892D-07  .182460868122D+01 -.273808836937D-06
     .940346999718D+00  .295281250000D+03  .111044550260D+01 -.850392565121D-08
    -.964325882329D-10  .100000000000D+01  .186600000000D+04  .000000000000D+00
     .240000000000D+01  .000000000000D+00 -.651925802231D-08  .400000000000D+01
     .273006000000D+06  .400000000000D+01
26 15 10 14  5 59 28.0 -.835987739265D-04 -.131876731757D-10  .000000000000D+00
     .900000000000D+01 -.908750000000D+02  .442911306177D-08  .945530545645D+00
    -.461935997009D-05  .201783026569D-03  .982731580734D-05  .515365411949D+04
     .280768000000D+06 -.353902578354D-07 -.255091676289D+00 -.763684511185D-07
     .960884296596D+00  .187312500000D+03  .208708816989D-01 -.800176187693D-08
    -.319656172105D-09  .100000000000D+01  .186600000000D+04  .000000000000D+00
     .240000000000D+01  .000000000000D+00  .745058059692D-08  .900000000000D+01
     .273606000000D+06  .400000000000D+01
 4 15 10 14  5 59 44.0 -.320998951793D-04 -.488853402203D-11  .000000000000D+00
     .500000000000D+01 -.156875000000D+02  .526129058244D-08  .309560933916D+01
    -.765547156334D-06  .119735809276D-01  .353343784809D-05  .515364074707D+04
     .280784000000D+06  .931322574615D-07  .182454843241D+01 -.126659870148D-06
     .940346683728D+00  .298281250000D+03  .111047922433D+01 -.837249160502D-08
    -.125719522437D-09  .100000000000D+01  .186600000000D+04  .000000000000D+00
     .240000000000D+01  .000000000000D+00 -.651925802231D-08  .500000000000D+01
     .273606000000D+06  .400000000000D+01
 9 15 10 14  5 59 44.0 -.260164961219D-05  .363797880709D-11  .000000000000D+00
     .170000000000D+02  .107812500000D+03  .459197698856D-08 -.139103281277D+01
     .544637441635D-05  .349320238456D-03  .802055001259D-05  .515372038269D+04
     .280784000000D+06  .111758708954D-07 -.235093838207D+01  .558793544769D-07
     .956615816169D+00  .227312500000D+03  .245297253227D+01 -.813248160764D-08
     .432518016111D-09  .100000000000D+01  .186600000000D+04  .000000000000D+00
     .240000000000D+01  .000000000000D+00  .931322574615D-09  .170000000000D+02
     .273606000000D+06  .400000000000D+01
 1 15 10 14  6  0  0.0  .234087929130D-05  .795807864051D-12  .000000000000D+00
     .101000000000D+03 -.171250000000D+02  .479127100424D-08 -.299272141241D+01
    -.877305865288D-06  .476389913820D-02  .412575900555D-05  .515365249825D+04
     .280800000000D+06 -.186264514923D-07  .185006813129D+01 -.391155481339D-07
     .962582846891D+00  .300968750000D+03  .490650972165D+00 -.824962934446D-08
    -.138577200868D-09  .100000000000D+01  .186600000000D+04  .000000000000D+00
     .240000000000D+01  .000000000000D+00  .512227416039D-08  .101000000000D+03
     .273606000000D+06  .400000000000D+01
 2 15 10 14  6  0  0.0  .592651776969D-03  .136424205266D-11  .000000000000D+00
     .960000000000D+02 -.145000000000D+02  .526521931752D-08 -.241229519391D+01
    -.661239027977D-06  .148463596124D-01  .374019145966D-05  .515363693047D+04
     .280800000000D+06  .111758708954D-06  .180944464149D+01 -.132247805595D-06
     .941250492073D+00  .296218750000D+03 -.222462381624D+01 -.829570269217D-08
     .246438836595D-10  .100000000000D+01  .186600000000D+04  .000000000000D+00
     .240000000000D+01  .000000000000D+00 -.204890966415D-07  .960000000000D+02
     .273606000000D+06  .400000000000D+01
 3 15 10 14  6  0  0.0  .201305374503D-04 -.136424205266D-11  .000000000000D+00
     .170000000000D+02 -.162187500000D+02  .425374861428D-08 -.819987856357D+00
    -.849366188049D-06  .489758676849D-03  .109616667032D-04  .515359043884D+04
     .280800000000D+06  .502914190292D-07  .289097306520D+01  .111758708954D-07
     .959682273864D+00  .165343750000D+03 -.274132657839D+01 -.787318509262D-08
    -.341085636157D-09  .100000000000D+01  .186600000000D+04  .000000000000D+00
     .240000000000D+01  .000000000000D+00  .186264514923D-08  .170000000000D+02
     .273606000000D+06  .400000000000D+01
 5 15 10 14  6  0  0.0 -.185310374945D-03  .397903932026D-11  .000000000000D+00
     .780000000000D+02 -.244375000000D+02  .459804867004D-08  .370742545087D-01
    -.118091702461D-05  .446193420794D-02  .109579414129D-04  .515366422462D+04
     .280800000000D+06  .912696123123D-07  .288210283844D+01  .204890966415D-07
     .946837488862D+00  .158843750000D+03  .438773044384D+00 -.809212278368D-08
    -.387158983869D-09  .100000000000D+01  .186600000000D+04  .000000000000D+00
     .240000000000D+01  .000000000000D+00 -.107102096081D-07  .780000000000D+02
     .273606000000D+06  .400000000000D+01
 6 15 10 14  6  0  0.0  .763460993767D-04  .704858393874D-11  .000000000000D+00
     .101000000000D+03 -.145625000000D+02  .486698844389D-08 -.521573628355D+00
    -.700354576111D-06  .201047048904D-03  .440329313278D-05  .515355058861D+04
     .280800000000D+06  .149011611938D-07  .184159826132D+01 -.819563865662D-07
     .962443015329D+00  .298968750000D+03  .270102029604D+01 -.827641617453D-08
    -.177864551630D-09  .100000000000D+01  .186600000000D+04  .000000000000D+00
     .240000000000D+01  .000000000000D+00  .419095158577D-08  .101000000000D+03
     .273606000000D+06  .400000000000D+01
 7 15 10 14  6  0  0.0  .482915434986D-03 -.795807864051D-12  .000000000000D+00
     .710000000000D+02 -.327500000000D+02  .477877048354D-08  .264749304223D+01
    -.166893005371D-05  .899855769239D-02  .225380063057D-05  .515369106674D+04
     .280800000000D+06 -.137835741043D-06 -.127323971696D+01 -.147148966789D-06
     .968506250470D+00  .343625000000D+03 -.269119667533D+01 -.830534595100D-08
    -.607168148133D-10  .100000000000D+01  .186600000000D+04  .000000000000D+00
     .240000000000D+01  .000000000000D+00 -.111758708954D-07  .710000000000D+02
     .273606000000D+06  .400000000000D+01
 8 15 10 14  6  0  0.0 -.866129994392D-05 -.136424205266D-11  .000000000000D+00
     .800000000000D+01  .480625000000D+02  .446947188573D-08  .666444648780D+00
     .255554914474D-05  .142743508331D-02  .957213342190D-05  .515358742142D+04
     .280800000000D+06 -.577419996262D-07  .791372774961D+00 -.242143869400D-07
     .960743780389D+00  .198062500000D+03 -.175310439956D+01 -.800354766560D-08
     .377515725045D-09  .100000000000D+01  .186600000000D+04  .000000000000D+00
     .240000000000D+01  .000000000000D+00  .465661287308D-08  .800000000000D+01
     .273606000000D+06  .400000000000D+01
